ONEWEB-0687             
1 61595U 24188B   25238.90218783  .00000007  00000+0 -16395-4 0  9992
2 61595  87.9024  64.4634 0002020 106.9030 253.2323 13.17649604 47145
ONEWEB-0688             
1 61596U 24188C   25238.93087473 -.00000023  00000+0 -93266-4 0  9997
2 61596  87.9021  64.4577 0003050  98.2086 261.9392 13.17649007 47146
ONEWEB-0689             
1 61597U 24188D   25238.83783341 -.00000046  00000+0 -16561-3 0  9991
2 61597  87.8749  79.7159 0001637  97.1113 263.0201 13.11418472 45870
ONEWEB-0690             
1 61598U 24188E   25238.92430641  .00000595  00000+0  16422-2 0  9996
2 61598  87.8792  79.6720 0001903  63.4760 296.6563 13.11418262 46064
ONEWEB-0691             
1 61599U 24188F   25238.91922705  .00000195  00000+0  51403-3 0  9998
2 61599  87.8709  79.6430 0002128  87.7233 272.4138 13.11418433 45918
ONEWEB-0692             
1 61600U 24188G   25238.93953014  .00000466  00000+0  12787-2 0  9992
2 61600  87.8773  79.7368 0000805  98.9140 261.2079 13.11418437 45907
ONEWEB-0693             
1 61601U 24188H   25238.94267801  .00000010  00000+0 -82197-5 0  9997
2 61601  87.9025  64.4733 0002240  68.7526 291.3845 13.17650590 47130
ONEWEB-0695             
1 61602U 24188J   25238.83950534  .00000131  00000+0  33424-3 0  9998
2 61602  87.8778  79.7435 0001358 103.0230 257.1050 13.11416298 45884
